[ {"CCSDS_OMM_VERS": "3.0", "COMMENT": "GENERATED VIA SPACE-TRACK.ORG API", "CREATION_DATE": "2020-02-16T18:14:09", "ORIGINATOR": "18 SPCS", "OBJECT_NAME": "OPS-SAT", "OBJECT_ID": "2019-092F", "CENTER_NAME": "EARTH", "REF_FRAME": "TEME", "TIME_SYSTEM": "UTC", "MEAN_ELEMENT_THEORY": "SGP4", "EPOCH": "2020-02-16T09:47:11.730624", "MEAN_MOTION": "15.15258771", "ECCENTRICITY": "0.00156420", "INCLINATION": "97.4642", "RA_OF_ASC_NODE": "232.7817", "ARG_OF_PERICENTER": "62.7977", "MEAN_ANOMALY": "297.4860", "EPHEMERIS_TYPE": "0", "CLASSIFICATION_TYPE": "U", "NORAD_CAT_ID": "44878", "ELEMENT_SET_NO": "999", "REV_AT_EPOCH": "905", "BSTAR": "0.00000000000000", "MEAN_MOTION_DOT": "-0.00000066", "MEAN_MOTION_DDOT": "0.0000000000000", "SEMIMAJOR_AXIS": "6898.330", "PERIOD": "95.033", "APOAPSIS": "530.985", "PERIAPSIS": "509.404", "OBJECT_TYPE": "PAYLOAD", "RCS_SIZE": "SMALL", "COUNTRY_CODE": "ESA", "LAUNCH_DATE": "2019-12-18", "SITE": "FRGUI", "DECAY_DATE": null, "FILE": "2703310", "GP_ID": "148881332", "TLE_LINE0": "0 OPS-SAT", "TLE_LINE1": "1 44878U 19092F   20047.40777466 -.00000066 +00000-0 +00000-0 0  9999", "TLE_LINE2": "2 44878 097.4642 232.7817 0015642 062.7977 297.4860 15.15258771009053"}, {"CCSDS_OMM_VERS": "3.0", "COMMENT": "GENERATED VIA SPACE-TRACK.ORG API", "CREATION_DATE": "2020-02-16T22:20:15", "ORIGINATOR": "18 SPCS", "OBJECT_NAME": "OPS-SAT", "OBJECT_ID": "2019-092F", "CENTER_NAME": "EARTH", "REF_FRAME": "TEME", "TIME_SYSTEM": "UTC", "MEAN_ELEMENT_THEORY": "SGP4", "EPOCH": "2020-02-16T16:07:34.174848", "MEAN_MOTION": "15.15259266", "ECCENTRICITY": "0.00157730", "INCLINATION": "97.4643", "RA_OF_ASC_NODE": "233.0411", "ARG_OF_PERICENTER": "61.8325", "MEAN_ANOMALY": "298.4523", "EPHEMERIS_TYPE": "0", "CLASSIFICATION_TYPE": "U", "NORAD_CAT_ID": "44878", "ELEMENT_SET_NO": "999", "REV_AT_EPOCH": "909", "BSTAR": "0.00000000000000", "MEAN_MOTION_DOT": "-0.00000066", "MEAN_MOTION_DDOT": "0.0000000000000", "SEMIMAJOR_AXIS": "6898.328", "PERIOD": "95.033", "APOAPSIS": "531.074", "PERIAPSIS": "509.312", "OBJECT_TYPE": "PAYLOAD", "RCS_SIZE": "SMALL", "COUNTRY_CODE": "ESA", "LAUNCH_DATE": "2019-12-18", "SITE": "FRGUI", "DECAY_DATE": null, "FILE": "2703355", "GP_ID": "148882197", "TLE_LINE0": "0 OPS-SAT", "TLE_LINE1": "1 44878U 19092F   20047.67192332 -.00000066  00000-0  00000+0 0  9990", "TLE_LINE2": "2 44878  97.4643 233.0411 0015773  61.8325 298.4523 15.15259266  9091"}, {"CCSDS_OMM_VERS": "3.0", "COMMENT": "GENERATED VIA SPACE-TRACK.ORG API", "CREATION_DATE": "2020-02-17T20:24:49", "ORIGINATOR": "18 SPCS", "OBJECT_NAME": "OPS-SAT", "OBJECT_ID": "2019-092F", "CENTER_NAME": "EARTH", "REF_FRAME": "TEME", "TIME_SYSTEM": "UTC", "MEAN_ELEMENT_THEORY": "SGP4", "EPOCH": "2020-02-17T03:13:13.418976", "MEAN_MOTION": "15.15259349", "ECCENTRICITY": "0.00157630", "INCLINATION": "97.4643", "RA_OF_ASC_NODE": "233.4951", "ARG_OF_PERICENTER": "60.2606", "MEAN_ANOMALY": "300.0190", "EPHEMERIS_TYPE": "0", "CLASSIFICATION_TYPE": "U", "NORAD_CAT_ID": "44878", "ELEMENT_SET_NO": "999", "REV_AT_EPOCH": "916", "BSTAR": "0.00000000000000", "MEAN_MOTION_DOT": "-0.00000066", "MEAN_MOTION_DDOT": "0.0000000000000", "SEMIMAJOR_AXIS": "6898.328", "PERIOD": "95.033", "APOAPSIS": "531.067", "PERIAPSIS": "509.319", "OBJECT_TYPE": "PAYLOAD", "RCS_SIZE": "SMALL", "COUNTRY_CODE": "ESA", "LAUNCH_DATE": "2019-12-18", "SITE": "FRGUI", "DECAY_DATE": null, "FILE": "2704250", "GP_ID": "148941049", "TLE_LINE0": "0 OPS-SAT", "TLE_LINE1": "1 44878U 19092F   20048.13418309 -.00000066 +00000-0 +00000-0 0  9998", "TLE_LINE2": "2 44878 097.4643 233.4951 0015763 060.2606 300.0190 15.15259349009168"}, {"CCSDS_OMM_VERS": "3.0", "COMMENT": "GENERATED VIA SPACE-TRACK.ORG API", "CREATION_DATE": "2020-02-18T02:23:46", "ORIGINATOR": "18 SPCS", "OBJECT_NAME": "OPS-SAT", "OBJECT_ID": "2019-092F", "CENTER_NAME": "EARTH", "REF_FRAME": "TEME", "TIME_SYSTEM": "UTC", "MEAN_ELEMENT_THEORY": "SGP4", "EPOCH": "2020-02-17T12:43:47.102592", "MEAN_MOTION": "15.15259557", "ECCENTRICITY": "0.00157020", "INCLINATION": "97.4641", "RA_OF_ASC_NODE": "233.8841", "ARG_OF_PERICENTER": "58.9873", "MEAN_ANOMALY": "301.2927", "EPHEMERIS_TYPE": "0", "CLASSIFICATION_TYPE": "U", "NORAD_CAT_ID": "44878", "ELEMENT_SET_NO": "999", "REV_AT_EPOCH": "922", "BSTAR": "0.00000000000000", "MEAN_MOTION_DOT": "-0.00000066", "MEAN_MOTION_DDOT": "0.0000000000000", "SEMIMAJOR_AXIS": "6898.327", "PERIOD": "95.033", "APOAPSIS": "531.024", "PERIAPSIS": "509.360", "OBJECT_TYPE": "PAYLOAD", "RCS_SIZE": "SMALL", "COUNTRY_CODE": "ESA", "LAUNCH_DATE": "2019-12-18", "SITE": "FRGUI", "DECAY_DATE": null, "FILE": "2704550", "GP_ID": "148986379", "TLE_LINE0": "0 OPS-SAT", "TLE_LINE1": "1 44878U 19092F   20048.53040628 -.00000066 +00000-0 +00000-0 0  9997", "TLE_LINE2": "2 44878 097.4641 233.8841 0015702 058.9873 301.2927 15.15259557009220"}, {"CCSDS_OMM_VERS": "3.0", "COMMENT": "GENERATED VIA SPACE-TRACK.ORG API", "CREATION_DATE": "2020-02-18T06:20:16", "ORIGINATOR": "18 SPCS", "OBJECT_NAME": "OPS-SAT", "OBJECT_ID": "2019-092F", "CENTER_NAME": "EARTH", "REF_FRAME": "TEME", "TIME_SYSTEM": "UTC", "MEAN_ELEMENT_THEORY": "SGP4", "EPOCH": "2020-02-18T01:24:31.958208", "MEAN_MOTION": "15.15259826", "ECCENTRICITY": "0.00156870", "INCLINATION": "97.4639", "RA_OF_ASC_NODE": "234.4032", "ARG_OF_PERICENTER": "57.2302", "MEAN_ANOMALY": "303.0471", "EPHEMERIS_TYPE": "0", "CLASSIFICATION_TYPE": "U", "NORAD_CAT_ID": "44878", "ELEMENT_SET_NO": "999", "REV_AT_EPOCH": "930", "BSTAR": "0.00000000000000", "MEAN_MOTION_DOT": "-0.00000066", "MEAN_MOTION_DDOT": "0.0000000000000", "SEMIMAJOR_AXIS": "6898.326", "PERIOD": "95.033", "APOAPSIS": "531.013", "PERIAPSIS": "509.370", "OBJECT_TYPE": "PAYLOAD", "RCS_SIZE": "SMALL", "COUNTRY_CODE": "ESA", "LAUNCH_DATE": "2019-12-18", "SITE": "FRGUI", "DECAY_DATE": null, "FILE": "2704583", "GP_ID": "148987096", "TLE_LINE0": "0 OPS-SAT", "TLE_LINE1": "1 44878U 19092F   20049.05870322 -.00000066  00000-0  00000+0 0  9996", "TLE_LINE2": "2 44878  97.4639 234.4032 0015687  57.2302 303.0471 15.15259826  9309"}, {"CCSDS_OMM_VERS": "3.0", "COMMENT": "GENERATED VIA SPACE-TRACK.ORG API", "CREATION_DATE": "2020-02-18T19:51:05", "ORIGINATOR": "18 SPCS", "OBJECT_NAME": "OPS-SAT", "OBJECT_ID": "2019-092F", "CENTER_NAME": "EARTH", "REF_FRAME": "TEME", "TIME_SYSTEM": "UTC", "MEAN_ELEMENT_THEORY": "SGP4", "EPOCH": "2020-02-18T09:19:59.963808", "MEAN_MOTION": "15.15260288", "ECCENTRICITY": "0.00155690", "INCLINATION": "97.4645", "RA_OF_ASC_NODE": "234.7282", "ARG_OF_PERICENTER": "57.2821", "MEAN_ANOMALY": "302.9992", "EPHEMERIS_TYPE": "0", "CLASSIFICATION_TYPE": "U", "NORAD_CAT_ID": "44878", "ELEMENT_SET_NO": "999", "REV_AT_EPOCH": "935", "BSTAR": "0.00000000000000", "MEAN_MOTION_DOT": "-0.00000066", "MEAN_MOTION_DDOT": "0.0000000000000", "SEMIMAJOR_AXIS": "6898.325", "PERIOD": "95.033", "APOAPSIS": "530.930", "PERIAPSIS": "509.450", "OBJECT_TYPE": "PAYLOAD", "RCS_SIZE": "SMALL", "COUNTRY_CODE": "ESA", "LAUNCH_DATE": "2019-12-18", "SITE": "FRGUI", "DECAY_DATE": null, "FILE": "2705151", "GP_ID": "149019407", "TLE_LINE0": "0 OPS-SAT", "TLE_LINE1": "1 44878U 19092F   20049.38888847 -.00000066 +00000-0 +00000-0 0  9994", "TLE_LINE2": "2 44878 097.4645 234.7282 0015569 057.2821 302.9992 15.15260288009356"}, {"CCSDS_OMM_VERS": "3.0", "COMMENT": "GENERATED VIA SPACE-TRACK.ORG API", "CREATION_DATE": "2020-02-19T02:05:32", "ORIGINATOR": "18 SPCS", "OBJECT_NAME": "OPS-SAT", "OBJECT_ID": "2019-092F", "CENTER_NAME": "EARTH", "REF_FRAME": "TEME", "TIME_SYSTEM": "UTC", "MEAN_ELEMENT_THEORY": "SGP4", "EPOCH": "2020-02-18T12:30:11.052864", "MEAN_MOTION": "15.15260859", "ECCENTRICITY": "0.00153800", "INCLINATION": "97.4642", "RA_OF_ASC_NODE": "234.8575", "ARG_OF_PERICENTER": "56.2290", "MEAN_ANOMALY": "304.0494", "EPHEMERIS_TYPE": "0", "CLASSIFICATION_TYPE": "U", "NORAD_CAT_ID": "44878", "ELEMENT_SET_NO": "999", "REV_AT_EPOCH": "937", "BSTAR": "0.00000000000000", "MEAN_MOTION_DOT": "-0.00000066", "MEAN_MOTION_DDOT": "0.0000000000000", "SEMIMAJOR_AXIS": "6898.323", "PERIOD": "95.033", "APOAPSIS": "530.798", "PERIAPSIS": "509.579", "OBJECT_TYPE": "PAYLOAD", "RCS_SIZE": "SMALL", "COUNTRY_CODE": "ESA", "LAUNCH_DATE": "2019-12-18", "SITE": "FRGUI", "DECAY_DATE": null, "FILE": "2705515", "GP_ID": "149045485", "TLE_LINE0": "0 OPS-SAT", "TLE_LINE1": "1 44878U 19092F   20049.52096126 -.00000066 +00000-0 +00000-0 0  9991", "TLE_LINE2": "2 44878 097.4642 234.8575 0015380 056.2290 304.0494 15.15260859009375"}, {"CCSDS_OMM_VERS": "3.0", "COMMENT": "GENERATED VIA SPACE-TRACK.ORG API", "CREATION_DATE": "2020-02-19T14:26:15", "ORIGINATOR": "18 SPCS", "OBJECT_NAME": "OPS-SAT", "OBJECT_ID": "2019-092F", "CENTER_NAME": "EARTH", "REF_FRAME": "TEME", "TIME_SYSTEM": "UTC", "MEAN_ELEMENT_THEORY": "SGP4", "EPOCH": "2020-02-19T05:56:12.544224", "MEAN_MOTION": "15.15261481", "ECCENTRICITY": "0.00155200", "INCLINATION": "97.4642", "RA_OF_ASC_NODE": "235.5713", "ARG_OF_PERICENTER": "53.6683", "MEAN_ANOMALY": "306.5995", "EPHEMERIS_TYPE": "0", "CLASSIFICATION_TYPE": "U", "NORAD_CAT_ID": "44878", "ELEMENT_SET_NO": "999", "REV_AT_EPOCH": "948", "BSTAR": "0.00000000000000", "MEAN_MOTION_DOT": "-0.00000066", "MEAN_MOTION_DDOT": "0.0000000000000", "SEMIMAJOR_AXIS": "6898.321", "PERIOD": "95.033", "APOAPSIS": "530.893", "PERIAPSIS": "509.480", "OBJECT_TYPE": "PAYLOAD", "RCS_SIZE": "SMALL", "COUNTRY_CODE": "ESA", "LAUNCH_DATE": "2019-12-18", "SITE": "FRGUI", "DECAY_DATE": null, "FILE": "2705962", "GP_ID": "149075345", "TLE_LINE0": "0 OPS-SAT", "TLE_LINE1": "1 44878U 19092F   20050.24736741 -.00000066  00000-0  00000+0 0  9995", "TLE_LINE2": "2 44878  97.4642 235.5713 0015520  53.6683 306.5995 15.15261481  9487"}]